start=new Date('2022-05-24T00:00:00.000Z').valueOf();
sats=[{"APOAPSIS":"548.483","TIME_SYSTEM":"UTC","INCLINATION":"53.0571","EPOCH":"2022-05-23T20:54:57.161952","SITE":"AFETR","TLE_LINE1":"1 48318U 21036AU  22143.87149493 -.00000024  00000-0  17330-4 0  9998","GP_ID":"204364934","NORAD_CAT_ID":"48318","SEMIMAJOR_AXIS":"6925.377","BSTAR":"0.00001733000000","MEAN_ANOMALY":"299.6286","CLASSIFICATION_TYPE":"U","CENTER_NAME":"EARTH","LAUNCH_DATE":"2021-04-29","RA_OF_ASC_NODE":"202.8071","PERIAPSIS":"546.000","ARG_OF_PERICENTER":"60.4882","REF_FRAME":"TEME","ECCENTRICITY":"0.00017930","MEAN_MOTION":"15.06390859","OBJECT_TYPE":"PAYLOAD","ELEMENT_SET_NO":"999","MEAN_ELEMENT_THEORY":"SGP4","EPHEMERIS_TYPE":"0","TLE_LINE2":"2 48318  53.0571 202.8071 0001793  60.4882 299.6286 15.06390859 59153","FILE":"3460905","MEAN_MOTION_DOT":"-0.00000024","MEAN_MOTION_DDOT":"0.0000000000000","OBJECT_ID":"2021-036AU","COUNTRY_CODE":"US","DECAY_DATE":null,"REV_AT_EPOCH":"5915","RCS_SIZE":"LARGE","OBJECT_NAME":"STARLINK-2509","PERIOD":"95.593"},{"PERIAPSIS":"546.076","REF_FRAME":"TEME","ARG_OF_PERICENTER":"62.3352","ECCENTRICITY":"0.00017970","MEAN_MOTION":"15.06364984","OBJECT_TYPE":"PAYLOAD","ELEMENT_SET_NO":"999","FILE":"3460905","TLE_LINE2":"2 48319  53.0562 202.8162 0001797  62.3352 297.7819 15.06364984 59153","MEAN_MOTION_DOT":"0.00008333","MEAN_ELEMENT_THEORY":"SGP4","EPHEMERIS_TYPE":"0","MEAN_MOTION_DDOT":"0.0000000000000","OBJECT_ID":"2021-036AV","REV_AT_EPOCH":"5915","DECAY_DATE":null,"COUNTRY_CODE":"US","OBJECT_NAME":"STARLINK-2512","RCS_SIZE":"LARGE","PERIOD":"95.594","APOAPSIS":"548.565","INCLINATION":"53.0562","TIME_SYSTEM":"UTC","SITE":"AFETR","EPOCH":"2022-05-23T20:49:38.709696","GP_ID":"204365183","TLE_LINE1":"1 48319U 21036AV  22143.86780914  .00008333  00000-0  57818-3 0  9991","NORAD_CAT_ID":"48319","SEMIMAJOR_AXIS":"6925.456","BSTAR":"0.00057818000000","MEAN_ANOMALY":"297.7819","CLASSIFICATION_TYPE":"U","LAUNCH_DATE":"2021-04-29","RA_OF_ASC_NODE":"202.8162","CENTER_NAME":"EARTH"},{"PERIAPSIS":"546.133","REF_FRAME":"TEME","ARG_OF_PERICENTER":"66.8704","ECCENTRICITY":"0.00016040","MEAN_MOTION":"15.06390120","OBJECT_TYPE":"PAYLOAD","ELEMENT_SET_NO":"999","MEAN_MOTION_DOT":"-0.00000567","TLE_LINE2":"2 48320  53.0539 202.8406 0001604  66.8704 293.2454 15.06390120 59154","FILE":"3460905","EPHEMERIS_TYPE":"0","MEAN_ELEMENT_THEORY":"SGP4","OBJECT_ID":"2021-036AW","MEAN_MOTION_DDOT":"0.0000000000000","REV_AT_EPOCH":"5915","COUNTRY_CODE":"US","DECAY_DATE":null,"OBJECT_NAME":"STARLINK-2029","RCS_SIZE":"LARGE","PERIOD":"95.593","APOAPSIS":"548.355","INCLINATION":"53.0539","TIME_SYSTEM":"UTC","SITE":"AFETR","EPOCH":"2022-05-23T20:44:19.780512","TLE_LINE1":"1 48320U 21036AW  22143.86411783 -.00000567  00000-0 -19193-4 0  9996","GP_ID":"204365931","NORAD_CAT_ID":"48320","SEMIMAJOR_AXIS":"6925.379","BSTAR":"-0.00001919300000","CLASSIFICATION_TYPE":"U","MEAN_ANOMALY":"293.2454","RA_OF_ASC_NODE":"202.8406","LAUNCH_DATE":"2021-04-29","CENTER_NAME":"EARTH"},{"PERIOD":"95.593","OBJECT_NAME":"STARLINK-2457","RCS_SIZE":"LARGE","REV_AT_EPOCH":"5915","COUNTRY_CODE":"US","DECAY_DATE":null,"OBJECT_ID":"2021-036AX","MEAN_MOTION_DDOT":"0.0000000000000","TLE_LINE2":"2 48321  53.0551 202.8460 0001609  54.3425 305.7713 15.06383556 59158","MEAN_MOTION_DOT":"-0.00000744","FILE":"3460905","EPHEMERIS_TYPE":"0","MEAN_ELEMENT_THEORY":"SGP4","ELEMENT_SET_NO":"999","OBJECT_TYPE":"PAYLOAD","MEAN_MOTION":"15.06383556","ECCENTRICITY":"0.00016090","REF_FRAME":"TEME","ARG_OF_PERICENTER":"54.3425","PERIAPSIS":"546.150","LAUNCH_DATE":"2021-04-29","RA_OF_ASC_NODE":"202.8460","CENTER_NAME":"EARTH","CLASSIFICATION_TYPE":"U","MEAN_ANOMALY":"305.7713","BSTAR":"-0.00003108500000","SEMIMAJOR_AXIS":"6925.399","NORAD_CAT_ID":"48321","GP_ID":"204365684","TLE_LINE1":"1 48321U 21036AX  22143.86043494 -.00000744  00000-0 -31085-4 0  9998","SITE":"AFETR","EPOCH":"2022-05-23T20:39:01.578816","INCLINATION":"53.0551","TIME_SYSTEM":"UTC","APOAPSIS":"548.378"},{"SEMIMAJOR_AXIS":"6925.382","BSTAR":"0.00006188000000","CENTER_NAME":"EARTH","LAUNCH_DATE":"2021-04-29","RA_OF_ASC_NODE":"202.8608","CLASSIFICATION_TYPE":"U","MEAN_ANOMALY":"302.7196","TIME_SYSTEM":"UTC","INCLINATION":"53.0556","APOAPSIS":"548.422","EPOCH":"2022-05-23T20:33:42.602112","SITE":"AFETR","TLE_LINE1":"1 48322U 21036AY  22143.85674308  .00000640  00000-0  61880-4 0  9991","GP_ID":"204364435","NORAD_CAT_ID":"48322","MEAN_ELEMENT_THEORY":"SGP4","EPHEMERIS_TYPE":"0","TLE_LINE2":"2 48322  53.0556 202.8608 0001697  57.3956 302.7196 15.06389175 59152","FILE":"3460905","MEAN_MOTION_DOT":"0.00000640","ELEMENT_SET_NO":"999","DECAY_DATE":null,"COUNTRY_CODE":"US","REV_AT_EPOCH":"5915","OBJECT_ID":"2021-036AY","MEAN_MOTION_DDOT":"0.0000000000000","RCS_SIZE":"MEDIUM","OBJECT_NAME":"STARLINK-2477","PERIOD":"95.593","ARG_OF_PERICENTER":"57.3956","REF_FRAME":"TEME","PERIAPSIS":"546.071","ECCENTRICITY":"0.00016970","MEAN_MOTION":"15.06389175","OBJECT_TYPE":"PAYLOAD"},{"OBJECT_TYPE":"PAYLOAD","MEAN_MOTION":"15.06393443","ECCENTRICITY":"0.00018850","REF_FRAME":"TEME","ARG_OF_PERICENTER":"39.4878","PERIAPSIS":"545.928","PERIOD":"95.593","RCS_SIZE":"LARGE","OBJECT_NAME":"STARLINK-2515","REV_AT_EPOCH":"5915","COUNTRY_CODE":"US","DECAY_DATE":null,"OBJECT_ID":"2021-036AZ","MEAN_MOTION_DDOT":"0.0000000000000","TLE_LINE2":"2 48323  53.0531 202.8819 0001885  39.4878 320.6248 15.06393443 59153","FILE":"3460905","MEAN_MOTION_DOT":"0.00002022","MEAN_ELEMENT_THEORY":"SGP4","EPHEMERIS_TYPE":"0","ELEMENT_SET_NO":"999","NORAD_CAT_ID":"48323","GP_ID":"204364685","TLE_LINE1":"1 48323U 21036AZ  22143.85305108  .00002022  00000-0  15465-3 0  9994","SITE":"AFETR","EPOCH":"2022-05-23T20:28:23.613312","INCLINATION":"53.0531","TIME_SYSTEM":"UTC","APOAPSIS":"548.539","LAUNCH_DATE":"2021-04-29","RA_OF_ASC_NODE":"202.8819","CENTER_NAME":"EARTH","MEAN_ANOMALY":"320.6248","CLASSIFICATION_TYPE":"U","BSTAR":"0.00015465000000","SEMIMAJOR_AXIS":"6925.369"},{"CLASSIFICATION_TYPE":"U","MEAN_ANOMALY":"304.2427","CENTER_NAME":"EARTH","RA_OF_ASC_NODE":"203.7878","LAUNCH_DATE":"2021-04-29","BSTAR":"0.00006931200000","SEMIMAJOR_AXIS":"6925.338","NORAD_CAT_ID":"48324","TLE_LINE1":"1 48324U 21036BA  22143.65031414  .00000751  00000-0  69312-4 0  9997","GP_ID":"204365432","EPOCH":"2022-05-23T15:36:27.141696","SITE":"AFETR","APOAPSIS":"548.260","TIME_SYSTEM":"UTC","INCLINATION":"53.0533","PERIOD":"95.592","RCS_SIZE":"LARGE","OBJECT_NAME":"STARLINK-2527","MEAN_MOTION_DDOT":"0.0000000000000","OBJECT_ID":"2021-036BA","COUNTRY_CODE":"US","DECAY_DATE":null,"REV_AT_EPOCH":"5911","ELEMENT_SET_NO":"999","EPHEMERIS_TYPE":"0","MEAN_ELEMENT_THEORY":"SGP4","TLE_LINE2":"2 48324  53.0533 203.7878 0001527  55.8707 304.2427 15.06403452 59112","FILE":"3460905","MEAN_MOTION_DOT":"0.00000751","OBJECT_TYPE":"PAYLOAD","MEAN_MOTION":"15.06403452","ECCENTRICITY":"0.00015270","PERIAPSIS":"546.145","ARG_OF_PERICENTER":"55.8707","REF_FRAME":"TEME"},{"BSTAR":"0.00013163000000","CLASSIFICATION_TYPE":"U","MEAN_ANOMALY":"305.3445","CENTER_NAME":"EARTH","LAUNCH_DATE":"2021-04-29","RA_OF_ASC_NODE":"203.8190","SEMIMAJOR_AXIS":"6925.358","GP_ID":"204366184","TLE_LINE1":"1 48325U 21036BB  22143.64664110  .00001679  00000-0  13163-3 0  9994","NORAD_CAT_ID":"48325","APOAPSIS":"548.422","TIME_SYSTEM":"UTC","INCLINATION":"53.0535","EPOCH":"2022-05-23T15:31:09.791040","SITE":"AFETR","OBJECT_NAME":"STARLINK-2495","RCS_SIZE":"LARGE","PERIOD":"95.592","ELEMENT_SET_NO":"999","MEAN_ELEMENT_THEORY":"SGP4","EPHEMERIS_TYPE":"0","FILE":"3460905","TLE_LINE2":"2 48325  53.0535 203.8190 0001732  54.7706 305.3445 15.06396993 59122","MEAN_MOTION_DOT":"0.00001679","OBJECT_ID":"2021-036BB","MEAN_MOTION_DDOT":"0.0000000000000","DECAY_DATE":null,"COUNTRY_CODE":"US","REV_AT_EPOCH":"5912","MEAN_MOTION":"15.06396993","OBJECT_TYPE":"PAYLOAD","PERIAPSIS":"546.023","ARG_OF_PERICENTER":"54.7706","REF_FRAME":"TEME","ECCENTRICITY":"0.00017320"},{"REV_AT_EPOCH":"5968","COUNTRY_CODE":"US","DECAY_DATE":null,"OBJECT_ID":"2021-036BC","MEAN_MOTION_DDOT":"0.0000000000000","MEAN_MOTION_DOT":"0.00000611","TLE_LINE2":"2 48326  53.0541 204.7201 0001454  70.2727 289.8418 15.06395195 59680","FILE":"3460556","MEAN_ELEMENT_THEORY":"SGP4","EPHEMERIS_TYPE":"0","ELEMENT_SET_NO":"999","PERIOD":"95.592","OBJECT_NAME":"STARLINK-2498","RCS_SIZE":"LARGE","ECCENTRICITY":"0.00014540","REF_FRAME":"TEME","ARG_OF_PERICENTER":"70.2727","PERIAPSIS":"546.221","OBJECT_TYPE":"PAYLOAD","MEAN_MOTION":"15.06395195","SEMIMAJOR_AXIS":"6925.363","LAUNCH_DATE":"2021-04-29","RA_OF_ASC_NODE":"204.7201","CENTER_NAME":"EARTH","CLASSIFICATION_TYPE":"U","MEAN_ANOMALY":"289.8418","BSTAR":"0.00005990000000","SITE":"AFETR","EPOCH":"2022-05-23T10:39:14.189472","INCLINATION":"53.0541","TIME_SYSTEM":"UTC","APOAPSIS":"548.235","NORAD_CAT_ID":"48326","GP_ID":"204336085","TLE_LINE1":"1 48326U 21036BC  22143.44391423  .00000611  00000-0  59900-4 0  9992"},{"RCS_SIZE":"LARGE","OBJECT_NAME":"STARLINK-2502","PERIOD":"95.592","FILE":"3460386","TLE_LINE2":"2 48327  53.0545 204.4346 0001538  56.2364 303.8772 15.06405707 59104","MEAN_MOTION_DOT":"0.00004815","MEAN_ELEMENT_THEORY":"SGP4","EPHEMERIS_TYPE":"0","ELEMENT_SET_NO":"999","REV_AT_EPOCH":"5910","COUNTRY_CODE":"US","DECAY_DATE":null,"OBJECT_ID":"2021-036BD","MEAN_MOTION_DDOT":"0.0000000000000","MEAN_MOTION":"15.06405707","OBJECT_TYPE":"PAYLOAD","REF_FRAME":"TEME","ARG_OF_PERICENTER":"56.2364","PERIAPSIS":"546.131","ECCENTRICITY":"0.00015380","BSTAR":"0.00034186000000","RA_OF_ASC_NODE":"204.4346","LAUNCH_DATE":"2021-04-29","CENTER_NAME":"EARTH","CLASSIFICATION_TYPE":"U","MEAN_ANOMALY":"303.8772","SEMIMAJOR_AXIS":"6925.331","TLE_LINE1":"1 48327U 21036BD  22143.50656921  .00004815  00000-0  34186-3 0  9995","GP_ID":"204328567","NORAD_CAT_ID":"48327","INCLINATION":"53.0545","TIME_SYSTEM":"UTC","APOAPSIS":"548.261","SITE":"AFETR","EPOCH":"2022-05-23T12:09:27.579744"}];
